<?xml version="1.0" encoding="UTF-8"?>
<ndm xmlns:xsi="http://www.w3.org/2001/XMLSchema-instance" xsi:noNamespaceSchemaLocation="https://sanaregistry.org/r/ndmxml_unqualified/ndmxml-2.0.0-master-2.0.xsd">
<omm id="CCSDS_OMM_VERS" version="2.0">
<header><CREATION_DATE/><ORIGINATOR/></header><body><segment><metadata><OBJECT_NAME>ONEWEB-0220</OBJECT_NAME><OBJECT_ID>2021-031Y</OBJECT_ID><CENTER_NAME>EARTH</CENTER_NAME><REF_FRAME>TEME</REF_FRAME><TIME_SYSTEM>UTC</TIME_SYSTEM><MEAN_ELEMENT_THEORY>SGP4</MEAN_ELEMENT_THEORY></metadata><data><meanElements><EPOCH>2023-09-30T15:37:37.761600</EPOCH><MEAN_MOTION>13.14504604</MEAN_MOTION><ECCENTRICITY>.0001294</ECCENTRICITY><INCLINATION>87.8975</INCLINATION><RA_OF_ASC_NODE>126.8995</RA_OF_ASC_NODE><ARG_OF_PERICENTER>72.8335</ARG_OF_PERICENTER><MEAN_ANOMALY>287.2937</MEAN_ANOMALY></meanElements><tleParameters><EPHEMERIS_TYPE>0</EPHEMERIS_TYPE><CLASSIFICATION_TYPE>U</CLASSIFICATION_TYPE><NORAD_CAT_ID>48232</NORAD_CAT_ID><ELEMENT_SET_NO>999</ELEMENT_SET_NO><REV_AT_EPOCH>11827</REV_AT_EPOCH><BSTAR>.4468E-3</BSTAR><MEAN_MOTION_DOT>.178E-5</MEAN_MOTION_DOT><MEAN_MOTION_DDOT>0</MEAN_MOTION_DDOT></tleParameters></data></segment></body></omm>
<omm id="CCSDS_OMM_VERS" version="2.0">
<header><CREATION_DATE/><ORIGINATOR/></header><body><segment><metadata><OBJECT_NAME>ONEWEB-0165</OBJECT_NAME><OBJECT_ID>2021-031Z</OBJECT_ID><CENTER_NAME>EARTH</CENTER_NAME><REF_FRAME>TEME</REF_FRAME><TIME_SYSTEM>UTC</TIME_SYSTEM><MEAN_ELEMENT_THEORY>SGP4</MEAN_ELEMENT_THEORY></metadata><data><meanElements><EPOCH>2023-09-30T07:12:12.229920</EPOCH><MEAN_MOTION>13.14501832</MEAN_MOTION><ECCENTRICITY>.000146</ECCENTRICITY><INCLINATION>87.8973</INCLINATION><RA_OF_ASC_NODE>126.9809</RA_OF_ASC_NODE><ARG_OF_PERICENTER>70.0224</ARG_OF_PERICENTER><MEAN_ANOMALY>290.1063</MEAN_ANOMALY></meanElements><tleParameters><EPHEMERIS_TYPE>0</EPHEMERIS_TYPE><CLASSIFICATION_TYPE>U</CLASSIFICATION_TYPE><NORAD_CAT_ID>48233</NORAD_CAT_ID><ELEMENT_SET_NO>999</ELEMENT_SET_NO><REV_AT_EPOCH>11818</REV_AT_EPOCH><BSTAR>.38983E-3</BSTAR><MEAN_MOTION_DOT>.157E-5</MEAN_MOTION_DOT><MEAN_MOTION_DDOT>0</MEAN_MOTION_DDOT></tleParameters></data></segment></body></omm>
<omm id="CCSDS_OMM_VERS" version="2.0">
<header><CREATION_DATE/><ORIGINATOR/></header><body><segment><metadata><OBJECT_NAME>ONEWEB-0199</OBJECT_NAME><OBJECT_ID>2021-031AA</OBJECT_ID><CENTER_NAME>EARTH</CENTER_NAME><REF_FRAME>TEME</REF_FRAME><TIME_SYSTEM>UTC</TIME_SYSTEM><MEAN_ELEMENT_THEORY>SGP4</MEAN_ELEMENT_THEORY></metadata><data><meanElements><EPOCH>2023-10-01T01:03:55.918944</EPOCH><MEAN_MOTION>13.14505386</MEAN_MOTION><ECCENTRICITY>.0001578</ECCENTRICITY><INCLINATION>87.8966</INCLINATION><RA_OF_ASC_NODE>126.8049</RA_OF_ASC_NODE><ARG_OF_PERICENTER>73.9935</ARG_OF_PERICENTER><MEAN_ANOMALY>286.1368</MEAN_ANOMALY></meanElements><tleParameters><EPHEMERIS_TYPE>0</EPHEMERIS_TYPE><CLASSIFICATION_TYPE>U</CLASSIFICATION_TYPE><NORAD_CAT_ID>48234</NORAD_CAT_ID><ELEMENT_SET_NO>999</ELEMENT_SET_NO><REV_AT_EPOCH>11818</REV_AT_EPOCH><BSTAR>.84274E-3</BSTAR><MEAN_MOTION_DOT>.325E-5</MEAN_MOTION_DOT><MEAN_MOTION_DDOT>0</MEAN_MOTION_DDOT></tleParameters></data></segment></body></omm>
<omm id="CCSDS_OMM_VERS" version="2.0">
<header><CREATION_DATE/><ORIGINATOR/></header><body><segment><metadata><OBJECT_NAME>ONEWEB-0203</OBJECT_NAME><OBJECT_ID>2021-031AB</OBJECT_ID><CENTER_NAME>EARTH</CENTER_NAME><REF_FRAME>TEME</REF_FRAME><TIME_SYSTEM>UTC</TIME_SYSTEM><MEAN_ELEMENT_THEORY>SGP4</MEAN_ELEMENT_THEORY></metadata><data><meanElements><EPOCH>2023-09-30T15:40:39.134208</EPOCH><MEAN_MOTION>13.14505862</MEAN_MOTION><ECCENTRICITY>.0002032</ECCENTRICITY><INCLINATION>87.8972</INCLINATION><RA_OF_ASC_NODE>126.8821</RA_OF_ASC_NODE><ARG_OF_PERICENTER>76.2825</ARG_OF_PERICENTER><MEAN_ANOMALY>283.8531</MEAN_ANOMALY></meanElements><tleParameters><EPHEMERIS_TYPE>0</EPHEMERIS_TYPE><CLASSIFICATION_TYPE>U</CLASSIFICATION_TYPE><NORAD_CAT_ID>48235</NORAD_CAT_ID><ELEMENT_SET_NO>999</ELEMENT_SET_NO><REV_AT_EPOCH>11814</REV_AT_EPOCH><BSTAR>.52446E-3</BSTAR><MEAN_MOTION_DOT>.207E-5</MEAN_MOTION_DOT><MEAN_MOTION_DDOT>0</MEAN_MOTION_DDOT></tleParameters></data></segment></body></omm>
<omm id="CCSDS_OMM_VERS" version="2.0">
<header><CREATION_DATE/><ORIGINATOR/></header><body><segment><metadata><OBJECT_NAME>ONEWEB-0197</OBJECT_NAME><OBJECT_ID>2021-031AC</OBJECT_ID><CENTER_NAME>EARTH</CENTER_NAME><REF_FRAME>TEME</REF_FRAME><TIME_SYSTEM>UTC</TIME_SYSTEM><MEAN_ELEMENT_THEORY>SGP4</MEAN_ELEMENT_THEORY></metadata><data><meanElements><EPOCH>2023-10-01T02:19:51.414240</EPOCH><MEAN_MOTION>13.14503115</MEAN_MOTION><ECCENTRICITY>.0001597</ECCENTRICITY><INCLINATION>87.8968</INCLINATION><RA_OF_ASC_NODE>126.8025</RA_OF_ASC_NODE><ARG_OF_PERICENTER>88.3476</ARG_OF_PERICENTER><MEAN_ANOMALY>271.7836</MEAN_ANOMALY></meanElements><tleParameters><EPHEMERIS_TYPE>0</EPHEMERIS_TYPE><CLASSIFICATION_TYPE>U</CLASSIFICATION_TYPE><NORAD_CAT_ID>48236</NORAD_CAT_ID><ELEMENT_SET_NO>999</ELEMENT_SET_NO><REV_AT_EPOCH>11811</REV_AT_EPOCH><BSTAR>.80727E-4</BSTAR><MEAN_MOTION_DOT>.43E-6</MEAN_MOTION_DOT><MEAN_MOTION_DDOT>0</MEAN_MOTION_DDOT></tleParameters></data></segment></body></omm>
<omm id="CCSDS_OMM_VERS" version="2.0">
<header><CREATION_DATE/><ORIGINATOR/></header><body><segment><metadata><OBJECT_NAME>ONEWEB-0194</OBJECT_NAME><OBJECT_ID>2021-031AD</OBJECT_ID><CENTER_NAME>EARTH</CENTER_NAME><REF_FRAME>TEME</REF_FRAME><TIME_SYSTEM>UTC</TIME_SYSTEM><MEAN_ELEMENT_THEORY>SGP4</MEAN_ELEMENT_THEORY></metadata><data><meanElements><EPOCH>2023-09-30T07:18:17.529120</EPOCH><MEAN_MOTION>13.14502405</MEAN_MOTION><ECCENTRICITY>.0002063</ECCENTRICITY><INCLINATION>87.8971</INCLINATION><RA_OF_ASC_NODE>126.9492</RA_OF_ASC_NODE><ARG_OF_PERICENTER>80.2133</ARG_OF_PERICENTER><MEAN_ANOMALY>279.9229</MEAN_ANOMALY></meanElements><tleParameters><EPHEMERIS_TYPE>0</EPHEMERIS_TYPE><CLASSIFICATION_TYPE>U</CLASSIFICATION_TYPE><NORAD_CAT_ID>48237</NORAD_CAT_ID><ELEMENT_SET_NO>999</ELEMENT_SET_NO><REV_AT_EPOCH>11818</REV_AT_EPOCH><BSTAR>-.25017E-3</BSTAR><MEAN_MOTION_DOT>-.8E-6</MEAN_MOTION_DOT><MEAN_MOTION_DDOT>0</MEAN_MOTION_DDOT></tleParameters></data></segment></body></omm>
<omm id="CCSDS_OMM_VERS" version="2.0">
<header><CREATION_DATE/><ORIGINATOR/></header><body><segment><metadata><OBJECT_NAME>ONEWEB-0193</OBJECT_NAME><OBJECT_ID>2021-031AE</OBJECT_ID><CENTER_NAME>EARTH</CENTER_NAME><REF_FRAME>TEME</REF_FRAME><TIME_SYSTEM>UTC</TIME_SYSTEM><MEAN_ELEMENT_THEORY>SGP4</MEAN_ELEMENT_THEORY></metadata><data><meanElements><EPOCH>2023-09-30T15:01:03.730368</EPOCH><MEAN_MOTION>13.14503233</MEAN_MOTION><ECCENTRICITY>.0001777</ECCENTRICITY><INCLINATION>87.8968</INCLINATION><RA_OF_ASC_NODE>126.8948</RA_OF_ASC_NODE><ARG_OF_PERICENTER>71.9371</ARG_OF_PERICENTER><MEAN_ANOMALY>288.1952</MEAN_ANOMALY></meanElements><tleParameters><EPHEMERIS_TYPE>0</EPHEMERIS_TYPE><CLASSIFICATION_TYPE>U</CLASSIFICATION_TYPE><NORAD_CAT_ID>48238</NORAD_CAT_ID><ELEMENT_SET_NO>999</ELEMENT_SET_NO><REV_AT_EPOCH>11817</REV_AT_EPOCH><BSTAR>-.11979E-2</BSTAR><MEAN_MOTION_DOT>-.431E-5</MEAN_MOTION_DOT><MEAN_MOTION_DDOT>0</MEAN_MOTION_DDOT></tleParameters></data></segment></body></omm>
<omm id="CCSDS_OMM_VERS" version="2.0">
<header><CREATION_DATE/><ORIGINATOR/></header><body><segment><metadata><OBJECT_NAME>ONEWEB-0191</OBJECT_NAME><OBJECT_ID>2021-031AF</OBJECT_ID><CENTER_NAME>EARTH</CENTER_NAME><REF_FRAME>TEME</REF_FRAME><TIME_SYSTEM>UTC</TIME_SYSTEM><MEAN_ELEMENT_THEORY>SGP4</MEAN_ELEMENT_THEORY></metadata><data><meanElements><EPOCH>2023-09-30T15:16:17.069952</EPOCH><MEAN_MOTION>13.14506169</MEAN_MOTION><ECCENTRICITY>.0001803</ECCENTRICITY><INCLINATION>87.8977</INCLINATION><RA_OF_ASC_NODE>126.8731</RA_OF_ASC_NODE><ARG_OF_PERICENTER>77.2886</ARG_OF_PERICENTER><MEAN_ANOMALY>282.8445</MEAN_ANOMALY></meanElements><tleParameters><EPHEMERIS_TYPE>0</EPHEMERIS_TYPE><CLASSIFICATION_TYPE>U</CLASSIFICATION_TYPE><NORAD_CAT_ID>48239</NORAD_CAT_ID><ELEMENT_SET_NO>999</ELEMENT_SET_NO><REV_AT_EPOCH>11803</REV_AT_EPOCH><BSTAR>-.28188E-3</BSTAR><MEAN_MOTION_DOT>-.92E-6</MEAN_MOTION_DOT><MEAN_MOTION_DDOT>0</MEAN_MOTION_DDOT></tleParameters></data></segment></body></omm>

</ndm>
