ONEWEB-0220             
1 48232U 21031Y   23273.65113150  .00000178  00000+0  44680-3 0  9995
2 48232  87.8975 126.8995 0001294  72.8335 287.2937 13.14504604118274
ONEWEB-0165             
1 48233U 21031Z   23273.30014155  .00000157  00000+0  38983-3 0  9999
2 48233  87.8973 126.9809 0001460  70.0224 290.1063 13.14501832118183
ONEWEB-0199             
1 48234U 21031AA  23274.04439721  .00000325  00000+0  84274-3 0  9993
2 48234  87.8966 126.8049 0001578  73.9935 286.1368 13.14505386118183
ONEWEB-0203             
1 48235U 21031AB  23273.65323072  .00000207  00000+0  52446-3 0  9996
2 48235  87.8972 126.8821 0002032  76.2825 283.8531 13.14505862118140
ONEWEB-0197             
1 48236U 21031AC  23274.09712285  .00000043  00000+0  80727-4 0  9996
2 48236  87.8968 126.8025 0001597  88.3476 271.7836 13.14503115118113
ONEWEB-0194             
1 48237U 21031AD  23273.30436955 -.00000080  00000+0 -25017-3 0  9990
2 48237  87.8971 126.9492 0002063  80.2133 279.9229 13.14502405118181
ONEWEB-0193             
1 48238U 21031AE  23273.62573762 -.00000431  00000+0 -11979-2 0  9995
2 48238  87.8968 126.8948 0001777  71.9371 288.1952 13.14503233118179
ONEWEB-0191             
1 48239U 21031AF  23273.63630868 -.00000092  00000+0 -28188-3 0  9992
2 48239  87.8977 126.8731 0001803  77.2886 282.8445 13.14506169118034
